OBJECT_NAME,OBJECT_ID,EPOCH,MEAN_MOTION,ECCENTRICITY,INCLINATION,RA_OF_ASC_NODE,ARG_OF_PERICENTER,MEAN_ANOMALY,EPHEMERIS_TYPE,CLASSIFICATION_TYPE,NORAD_CAT_ID,ELEMENT_SET_NO,REV_AT_EPOCH,BSTAR,MEAN_MOTION_DOT,MEAN_MOTION_DDOT
CONNECTA IOT-1,2024-149E,2026-06-12T04:04:37.647552,15.23503506,.00006954,97.3762,239.5458,350.9310,9.1914,0,U,60472,999,10103,.18486118E-3,.4342E-4,0
LOPEN,2024-149F,2026-06-12T04:34:51.209472,15.39547705,.00003357,97.3785,246.5199,196.7596,163.3638,0,U,60473,999,10149,.42673095E-3,.16708E-3,0
ROCK,2024-149G,2026-06-12T04:15:29.775744,15.39542700,.00006188,97.3779,246.5224,206.7281,153.3933,0,U,60474,999,10149,.41918303E-3,.16407E-3,0
CONNECTA IOT-3,2024-149H,2026-06-12T04:35:27.951936,15.23515386,.00013484,97.3738,239.3216,293.2003,66.9092,0,U,60475,999,10104,.17397526E-3,.4083E-4,0
QUBE,2024-149J,2026-06-12T04:38:04.386912,15.46972403,.00015155,97.3779,249.5311,207.7729,152.3440,0,U,60476,999,10169,.50295589E-3,.25323E-3,0
WREN-1,2024-149L,2026-06-12T04:49:04.336032,15.41365206,.00029853,97.3766,247.2614,273.0785,87.0120,0,U,60478,999,10155,.52412591E-3,.21826E-3,0
TOMORROW-S1,2024-149M,2026-06-12T04:11:22.104960,15.32649975,.00011077,97.3754,243.6625,242.4721,117.6409,0,U,60479,999,10132,.25860462E-3,.8076E-4,0
FLOCK 4BE-18,2024-149N,2026-06-12T05:07:00.350400,15.41699524,.00024882,97.3732,246.8912,259.2328,100.8639,0,U,60480,999,10154,.41314853E-3,.17368E-3,0
FLOCK 4BE-7,2024-149P,2026-06-12T03:36:59.428512,15.40112091,.00017061,97.3764,246.1770,264.2705,95.8347,0,U,60481,999,10147,.50256135E-3,.20069E-3,0
TOMORROW-S2,2024-149T,2026-06-12T04:55:26.973984,15.32678447,.00012771,97.3822,244.1771,301.2307,58.8809,0,U,60485,999,10132,.25611294E-3,.8004E-4,0
FLOCK 4BE-36,2024-149U,2026-06-12T04:29:57.941088,15.42570249,.00021452,97.3750,247.5563,281.1120,78.9886,0,U,60486,999,10158,.38404474E-3,.16612E-3,0
FLOCK 4BE-25,2024-149V,2026-06-12T05:03:19.066176,15.38712472,.00009272,97.3803,246.3273,249.9108,110.2037,0,U,60487,999,10147,.3529714E-3,.13427E-3,0
FLOCK 4BE-31,2024-149W,2026-06-12T05:20:49.887168,15.43902296,.00011312,97.3800,248.4357,278.4556,81.6564,0,U,60488,999,10161,.46950569E-3,.2127E-3,0
FLOCK 4BE-20,2024-149X,2026-06-12T04:07:03.494208,15.37932507,.00022109,97.3701,245.1800,277.1192,82.9801,0,U,60489,999,10144,.39413981E-3,.1463E-3,0
FLOCK 4BE-23,2024-149Y,2026-06-12T05:24:55.328832,15.37551142,.00018985,97.3785,245.6080,288.8263,71.2776,0,U,60490,999,10143,.36324536E-3,.13309E-3,0
FLOCK 4BE-15,2024-149Z,2026-06-12T05:02:03.853248,15.58875376,.00025164,97.3693,248.4068,248.8021,111.2967,0,U,60491,999,10165,.12137789E-2,.94804E-3,0
FLOCK 4BE-17,2024-149AA,2026-06-12T05:11:52.886112,15.39644228,.00017249,97.3778,246.5469,263.7949,96.3101,0,U,60492,999,10149,.38100985E-3,.14953E-3,0
NUSAT-50 (NANCY ROMAN),2024-149AB,2026-06-12T04:44:06.740736,15.29771257,.00030006,97.3789,244.4877,189.7936,170.3247,0,U,60493,999,10136,.3319065E-3,.9499E-4,0
FLOCK 4BE-22,2024-149AC,2026-06-12T06:25:13.144800,15.41020599,.0002142,97.3740,246.7819,281.6061,78.4945,0,U,60494,999,10154,.41730922E-3,.17151E-3,0
FLOCK 4BE-34,2024-149AD,2026-06-12T05:16:23.535840,15.41016215,.00020526,97.3786,247.5534,299.0686,61.0355,0,U,60495,999,10156,.3756378E-3,.15425E-3,0
TYCHE,2024-149AE,2026-06-12T05:13:14.944512,15.25948581,.00006304,97.3756,241.0995,308.4406,51.6775,0,U,60496,999,10114,.1815113E-3,.4587E-4,0
FLOCK 4BE-32,2024-149AF,2026-06-12T04:35:45.257856,15.41995104,.00022091,97.3727,247.0648,287.5203,72.5803,0,U,60497,999,10156,.43799474E-3,.18602E-3,0
NUSAT-48 (HENRIETTA LEAVITT),2024-149AG,2026-06-11T15:54:09.836640,15.30024264,.0002487,97.3918,244.1905,305.1308,54.9700,0,U,60498,999,10129,.29362607E-3,.8459E-4,0
FLOCK 4BE-30,2024-149AH,2026-06-12T04:13:54.539616,15.55297145,.00036562,97.3778,248.5301,237.6765,122.4136,0,U,60499,999,10099,.20861704E-2,.143651E-2,0
NUSAT-49 (KLARA DAN VON NEUMANN),2024-149AJ,2026-06-12T03:56:34.805472,15.29864594,.00013971,97.3785,244.4868,6.7334,353.3925,0,U,60500,999,10136,.32549472E-3,.934E-4,0
FLOCK 4BE-11,2024-149AK,2026-06-12T04:31:48.401760,15.42823444,.00023653,97.3706,247.2875,287.1564,72.9425,0,U,60501,999,10158,.4151404E-3,.18121E-3,0
YAM-7,2024-149AN,2026-06-12T05:21:26.262432,15.31752812,.00022706,97.3788,243.4930,335.4635,24.6499,0,U,60504,999,10129,.25877299E-3,.7857E-4,0
FLOCK 4BE-24,2024-149AP,2026-06-12T04:12:51.386400,15.42892251,.00025217,97.3720,247.5282,299.7745,60.3252,0,U,60505,999,10159,.47171232E-3,.20657E-3,0
LUR-1,2024-149AQ,2026-06-12T04:59:31.104960,15.30043097,.0003187,97.3741,242.0721,343.2950,16.8185,0,U,60506,999,10121,.24432692E-3,.703E-4,0
