CONNECTA IOT-1          
1 60472U 24149E   26163.16988018  .00004342  00000+0  18486-3 0  9990
2 60472  97.3762 239.5458 0000695 350.9310   9.1914 15.23503506101031
LOPEN                   
1 60473U 24149F   26163.19087048  .00016708  00000+0  42673-3 0  9991
2 60473  97.3785 246.5199 0000335 196.7596 163.3638 15.39547705101492
ROCK                    
1 60474U 24149G   26163.17742796  .00016407  00000+0  41918-3 0  9995
2 60474  97.3779 246.5224 0000618 206.7281 153.3933 15.39542700101499
CONNECTA IOT-3          
1 60475U 24149H   26163.19129574  .00004083  00000+0  17398-3 0  9993
2 60475  97.3738 239.3216 0001348 293.2003  66.9092 15.23515386101049
QUBE                    
1 60476U 24149J   26163.19310633  .00025323  00000+0  50296-3 0  9996
2 60476  97.3779 249.5311 0001515 207.7729 152.3440 15.46972403101695
WREN-1                  
1 60478U 24149L   26163.20074463  .00021826  00000+0  52413-3 0  9995
2 60478  97.3766 247.2614 0002985 273.0785  87.0120 15.41365206101550
TOMORROW-S1             
1 60479U 24149M   26163.17456140  .00008076  00000+0  25860-3 0  9996
2 60479  97.3754 243.6625 0001107 242.4721 117.6409 15.32649975101328
FLOCK 4BE-18            
1 60480U 24149N   26163.21319850  .00017368  00000+0  41315-3 0  9996
2 60480  97.3732 246.8912 0002488 259.2328 100.8639 15.41699524101540
FLOCK 4BE-7             
1 60481U 24149P   26163.15068783  .00020069  00000+0  50256-3 0  9992
2 60481  97.3764 246.1770 0001706 264.2705  95.8347 15.40112091101477
TOMORROW-S2             
1 60485U 24149T   26163.20517331  .00008004  00000+0  25611-3 0  9992
2 60485  97.3822 244.1771 0001277 301.2307  58.8809 15.32678447101327
FLOCK 4BE-36            
1 60486U 24149U   26163.18747617  .00016612  00000+0  38404-3 0  9990
2 60486  97.3750 247.5563 0002145 281.1120  78.9886 15.42570249101586
FLOCK 4BE-25            
1 60487U 24149V   26163.21063734  .00013427  00000+0  35297-3 0  9994
2 60487  97.3803 246.3273 0000927 249.9108 110.2037 15.38712472101472
FLOCK 4BE-31            
1 60488U 24149W   26163.22279962  .00021270  00000+0  46951-3 0  9992
2 60488  97.3800 248.4357 0001131 278.4556  81.6564 15.43902296101611
FLOCK 4BE-20            
1 60489U 24149X   26163.17156822  .00014630  00000+0  39414-3 0  9994
2 60489  97.3701 245.1800 0002210 277.1192  82.9801 15.37932507101440
FLOCK 4BE-23            
1 60490U 24149Y   26163.22564038  .00013309  00000+0  36325-3 0  9994
2 60490  97.3785 245.6080 0001898 288.8263  71.2776 15.37551142101431
FLOCK 4BE-15            
1 60491U 24149Z   26163.20976682  .00094804  00000+0  12138-2 0  9999
2 60491  97.3693 248.4068 0002516 248.8021 111.2967 15.58875376101655
FLOCK 4BE-17            
1 60492U 24149AA  26163.21658433  .00014953  00000+0  38101-3 0  9998
2 60492  97.3778 246.5469 0001724 263.7949  96.3101 15.39644228101493
NUSAT-50 (NANCY ROMAN)  
1 60493U 24149AB  26163.19730024  .00009499  00000+0  33191-3 0  9996
2 60493  97.3789 244.4877 0003000 189.7936 170.3247 15.29771257101360
FLOCK 4BE-22            
1 60494U 24149AC  26163.26751325  .00017151  00000+0  41731-3 0  9995
2 60494  97.3740 246.7819 0002142 281.6061  78.4945 15.41020599101549
FLOCK 4BE-34            
1 60495U 24149AD  26163.21971685  .00015425  00000+0  37564-3 0  9995
2 60495  97.3786 247.5534 0002052 299.0686  61.0355 15.41016215101564
TYCHE                   
1 60496U 24149AE  26163.21753408  .00004587  00000+0  18151-3 0  9995
2 60496  97.3756 241.0995 0000630 308.4406  51.6775 15.25948581101144
FLOCK 4BE-32            
1 60497U 24149AF  26163.19149604  .00018602  00000+0  43799-3 0  9999
2 60497  97.3727 247.0648 0002209 287.5203  72.5803 15.41995104101561
NUSAT-48 (HENRIETTA LE*)
1 60498U 24149AG  26162.66261385  .00008459  00000+0  29363-3 0  9992
2 60498  97.3918 244.1905 0002487 305.1308  54.9700 15.30024264101297
FLOCK 4BE-30            
1 60499U 24149AH  26163.17632569  .00143651  00000+0  20862-2 0  9994
2 60499  97.3778 248.5301 0003656 237.6765 122.4136 15.55297145100992
NUSAT-49 (KLARA DAN VO*)
1 60500U 24149AJ  26163.16429173  .00009340  00000+0  32549-3 0  9993
2 60500  97.3785 244.4868 0001397   6.7334 353.3925 15.29864594101365
FLOCK 4BE-11            
1 60501U 24149AK  26163.18875465  .00018121  00000+0  41514-3 0  9994
2 60501  97.3706 247.2875 0002365 287.1564  72.9425 15.42823444101581
YAM-7                   
1 60504U 24149AN  26163.22322063  .00007857  00000+0  25877-3 0  9991
2 60504  97.3788 243.4930 0002270 335.4635  24.6499 15.31752812101296
FLOCK 4BE-24            
1 60505U 24149AP  26163.17559475  .00020657  00000+0  47171-3 0  9999
2 60505  97.3720 247.5282 0002521 299.7745  60.3252 15.42892251101592
LUR-1                   
1 60506U 24149AQ  26163.20799890  .00007030  00000+0  24433-3 0  9997
2 60506  97.3741 242.0721 0003187 343.2950  16.8185 15.30043097101219
